ONEWEB-0020             
1 45133U 20008C   24059.41861670 -.00000589  00000+0 -17243-2 0  9991
2 45133  87.8949 203.0859 0001406 105.8608 254.2674 13.10375240198362
ONEWEB-0021             
1 45134U 20008D   24059.43322500 -.00000396  00000+0 -11715-2 0  9992
2 45134  87.8957 203.0930 0001609 101.1852 258.9456 13.10375687198675
ONEWEB-0022             
1 45135U 20008E   24059.45623503  .00000633  00000+0  17750-2 0  9999
2 45135  87.8957 203.1062 0001305 102.5449 257.5824 13.10399750198371
ONEWEB-0023             
1 45136U 20008F   24059.44623576  .00000227  00000+0  61370-3 0  9996
2 45136  87.8956 203.0815 0001882 114.3915 245.7409 13.10376383198101
ONEWEB-0024             
1 45137U 20008G   24059.79876748 -.00000552  00000+0 -16170-2 0  9996
2 45137  87.8941 203.0112 0001615  98.5088 261.6223 13.10371346199065
ONEWEB-0025             
1 45138U 20008H   24059.43484689 -.00000308  00000+0 -91993-3 0  9993
2 45138  87.8945 203.0824 0001833 101.2272 258.9062 13.10372528198599
ONEWEB-0026             
1 45139U 20008J   24059.81677967 -.00111578  00000+0 -31991+0 0  9999
2 45139  87.9041 187.9221 0000452  93.3436 266.7743 13.11150782201975
ONEWEB-0028             
1 45140U 20008K   24059.61966379 -.00000393  00000+0 -11456-2 0  9996
2 45140  87.9023 188.0076 0002328 101.5710 258.5679 13.11417597198587
